{"type":"FeatureCollection","features":[{"type":"Feature","properties":{"kind":"road"},"geometry":{"type":"LineString","coordinates":[[105.78768,10.037677],[105.787595,10.03755],[105.787549,10.037431],[105.787431,10.036728]]}},{"type":"Feature","properties":{"kind":"road"},"geometry":{"type":"LineString","coordinates":[[105.758794,10.037223],[105.759891,10.038285],[105.76059,10.038962],[105.760922,10.039284],[105.761379,10.039726],[105.762116,10.040441],[105.7631,10.041398],[105.763639,10.041982],[105.763678,10.042022]]}},{"type":"Feature","properties":{"kind":"road"},"geometry":{"type":"LineString","coordinates":[[105.779904,10.045389],[105.779878,10.045341],[105.779866,10.045289],[105.779867,10.045235],[105.779881,10.045183]]}},{"type":"Feature","properties":{"kind":"road"},"geometry":{"type":"LineString","coordinates":[[105.780247,10.045116],[105.780457,10.044912],[105.780641,10.044734],[105.780799,10.044572],[105.780864,10.044506],[105.781053,10.044347],[105.781335,10.044083],[105.781832,10.043627],[105.78226,10.043199],[105.78287,10.042515]]}},{"type":"Feature","properties":{"kind":"road"},"geometry":{"type":"LineString","coordinates":[[105.783019,10.042366],[105.783635,10.041786]]}},{"type":"Feature","properties":{"kind":"road"},"geometry":{"type":"LineString","coordinates":[[105.783635,10.041786],[105.783698,10.04173]]}},{"type":"Feature","properties":{"kind":"road"},"geometry":{"type":"LineString","coordinates":[[105.777358,10.040268],[105.777705,10.041238]]}},{"type":"Feature","properties":{"kind":"road"},"geometry":{"type":"LineString","coordinates":[[105.765182,10.043482],[105.76589,10.042725],[105.766072,10.042516],[105.766368,10.042182],[105.76778,10.040578],[105.767849,10.0405],[105.768102,10.040205],[105.768294,10.040002],[105.768668,10.039727],[105.768817,10.039648],[105.768887,10.039613],[105.76913,10.039503]]}},{"type":"Feature","properties":{"kind":"road"},"geometry":{"type":"LineString","coordinates":[[105.777705,10.041238],[105.77777,10.041415],[105.778139,10.042435],[105.778522,10.043469],[105.778611,10.043713],[105.778637,10.043769],[105.778668,10.043822],[105.778716,10.043889],[105.778771,10.043949],[105.779246,10.044401],[105.779742,10.044873],[105.779899,10.045022],[105.779993,10.045068]]}},{"type":"Feature","properties":{"kind":"road"},"geometry":{"type":"LineString","coordinates":[[105.762507,10.014293],[105.76251,10.01423],[105.763591,10.01301],[105.764725,10.011739],[105.765124,10.011289],[105.765607,10.010752]]}},{"type":"Feature","properties":{"kind":"road"},"geometry":{"type":"LineString","coordinates":[[105.752647,10.022745],[105.752848,10.022605],[105.753116,10.022374],[105.753653,10.021867],[105.754348,10.021232],[105.755291,10.020334],[105.755992,10.019644],[105.756201,10.019465],[105.756479,10.019261],[105.756709,10.019093],[105.757106,10.018809],[105.757257,10.018698],[105.757348,10.018628],[105.758297,10.017902]]}},{"type":"Feature","properties":{"kind":"road"},"geometry":{"type":"LineString","coordinates":[[105.752087,10.030628],[105.75338,10.031897],[105.754808,10.033312],[105.756064,10.034555],[105.756291,10.03478],[105.756456,10.034943],[105.756885,10.035367],[105.757275,10.035739],[105.757676,10.036108],[105.758037,10.036468],[105.758309,10.03674],[105.758584,10.037016],[105.758794,10.037223]]}},{"type":"Feature","properties":{"kind":"road"},"geometry":{"type":"LineString","coordinates":[[105.784932,10.03422],[105.783686,10.033134]]}},{"type":"Feature","properties":{"kind":"road"},"geometry":{"type":"LineString","coordinates":[[105.776951,10.027184],[105.776467,10.026767],[105.775973,10.026333],[105.774853,10.02536],[105.774152,10.024735]]}},{"type":"Feature","properties":{"kind":"road"},"geometry":{"type":"LineString","coordinates":[[105.782116,10.031473],[105.782286,10.03163],[105.782477,10.031806],[105.7825,10.031828],[105.783024,10.032311],[105.783627,10.032867],[105.783795,10.033022]]}},{"type":"Feature","properties":{"kind":"road"},"geometry":{"type":"LineString","coordinates":[[105.774059,10.024642],[105.773865,10.024482],[105.773853,10.024472],[105.773471,10.024157],[105.772619,10.023405],[105.771981,10.022861],[105.77166,10.022574],[105.770869,10.021867],[105.770861,10.021859],[105.770779,10.021786]]}},{"type":"Feature","properties":{"kind":"road"},"geometry":{"type":"LineString","coordinates":[[105.746345,10.035425],[105.745952,10.035769]]}},{"type":"Feature","properties":{"kind":"road"},"geometry":{"type":"LineString","coordinates":[[105.775552,10.053765],[105.776812,10.054961]]}},{"type":"Feature","properties":{"kind":"road"},"geometry":{"type":"LineString","coordinates":[[105.764932,10.021464],[105.765015,10.021561],[105.765986,10.022685],[105.766738,10.023552],[105.767068,10.023931],[105.76756,10.024478],[105.767942,10.024924],[105.768098,10.025105],[105.768152,10.02517],[105.768554,10.025645],[105.768913,10.026059],[105.769098,10.026275],[105.769617,10.026882],[105.769691,10.026969],[105.769868,10.027176],[105.769945,10.027261],[105.771055,10.028565],[105.771192,10.028711],[105.771209,10.028734],[105.771507,10.029094],[105.771681,10.029305],[105.772374,10.030076],[105.772599,10.030341],[105.77281,10.030592],[105.773598,10.031538],[105.774362,10.032423],[105.774504,10.032652]]}},{"type":"Feature","properties":{"kind":"road"},"geometry":{"type":"LineString","coordinates":[[105.774442,10.032743],[105.77439,10.032677],[105.773714,10.031851],[105.773386,10.031512],[105.773004,10.031116],[105.772231,10.030161],[105.771159,10.028966],[105.770198,10.027788],[105.770077,10.027646],[105.769831,10.027357],[105.769749,10.02727],[105.769681,10.027186],[105.769571,10.027061],[105.769204,10.026645],[105.768836,10.026228],[105.768006,10.025287],[105.767949,10.025221],[105.767537,10.024744]]}},{"type":"Feature","properties":{"kind":"road"},"geometry":{"type":"LineString","coordinates":[[105.764844,10.021359],[105.764962,10.0213],[105.768088,10.019762],[105.768331,10.01964]]}},{"type":"Feature","properties":{"kind":"road"},"geometry":{"type":"LineString","coordinates":[[105.768435,10.019735],[105.766995,10.020452],[105.76673,10.020582],[105.765131,10.02137],[105.765072,10.021398],[105.764932,10.021464]]}},{"type":"Feature","properties":{"kind":"road"},"geometry":{"type":"LineString","coordinates":[[105.751972,10.03052],[105.753441,10.029295],[105.753557,10.029203],[105.754133,10.028757],[105.754272,10.02865]]}},{"type":"Feature","properties":{"kind":"road"},"geometry":{"type":"LineString","coordinates":[[105.763537,10.042048],[105.763207,10.041695],[105.762026,10.040523],[105.759854,10.038371],[105.759829,10.038347],[105.758271,10.036871],[105.756333,10.034991],[105.756223,10.03485],[105.756002,10.034606],[105.755393,10.034006],[105.754749,10.033371],[105.753731,10.032365],[105.753716,10.032351],[105.753507,10.032146],[105.752146,10.03085],[105.751994,10.030705]]}},{"type":"Feature","properties":{"kind":"road"},"geometry":{"type":"LineString","coordinates":[[105.765073,10.043577],[105.764734,10.043246]]}},{"type":"Feature","properties":{"kind":"road"},"geometry":{"type":"LineString","coordinates":[[105.769247,10.039612],[105.768734,10.039851],[105.768406,10.040125],[105.76834,10.040179],[105.767962,10.040577],[105.767909,10.040637],[105.76755,10.041057],[105.767282,10.041368],[105.766891,10.041811],[105.766466,10.04227],[105.766178,10.042598],[105.765289,10.043606]]}},{"type":"Feature","properties":{"kind":"road"},"geometry":{"type":"LineString","coordinates":[[105.776064,10.02978],[105.776033,10.029726],[105.77619,10.029219],[105.776331,10.028778],[105.776524,10.028197],[105.776532,10.028174],[105.776592,10.027995],[105.776676,10.027757],[105.776728,10.027609],[105.776839,10.027316],[105.776941,10.027213]]}},{"type":"Feature","properties":{"kind":"road"},"geometry":{"type":"LineString","coordinates":[[105.77122,10.038041],[105.770306,10.038998],[105.769917,10.039278],[105.769247,10.039612]]}},{"type":"Feature","properties":{"kind":"road"},"geometry":{"type":"LineString","coordinates":[[105.777305,10.040322],[105.777282,10.040257],[105.77703,10.039579],[105.776812,10.038991],[105.776798,10.038954],[105.776628,10.038495],[105.776499,10.038148],[105.776382,10.03783],[105.776089,10.03704],[105.775652,10.035864],[105.775174,10.034573],[105.774674,10.033225],[105.774586,10.032987],[105.774498,10.032832]]}},{"type":"Feature","properties":{"kind":"road"},"geometry":{"type":"LineString","coordinates":[[105.754338,10.028753],[105.753799,10.029171],[105.753569,10.029352],[105.753449,10.029448],[105.753226,10.029637],[105.752267,10.030465],[105.752087,10.030628]]}},{"type":"Feature","properties":{"kind":"road"},"geometry":{"type":"LineString","coordinates":[[105.756649,10.027182],[105.756383,10.027372]]}},{"type":"Feature","properties":{"kind":"road"},"geometry":{"type":"LineString","coordinates":[[105.756574,10.027105],[105.756769,10.02697],[105.758504,10.025771],[105.758648,10.025671]]}},{"type":"Feature","properties":{"kind":"road"},"geometry":{"type":"LineString","coordinates":[[105.756301,10.027296],[105.756574,10.027105]]}},{"type":"Feature","properties":{"kind":"road"},"geometry":{"type":"LineString","coordinates":[[105.760662,10.024278],[105.761018,10.024008],[105.761845,10.023431],[105.762021,10.023316],[105.762959,10.022674],[105.763226,10.02249]]}},{"type":"Feature","properties":{"kind":"road"},"geometry":{"type":"LineString","coordinates":[[105.758718,10.025746],[105.757296,10.026726],[105.756877,10.027021],[105.756649,10.027182]]}},{"type":"Feature","properties":{"kind":"road"},"geometry":{"type":"LineString","coordinates":[[105.76071,10.024377],[105.760506,10.024525]]}},{"type":"Feature","properties":{"kind":"road"},"geometry":{"type":"LineString","coordinates":[[105.763286,10.022572],[105.763026,10.022757],[105.762533,10.023107],[105.762306,10.02326],[105.762089,10.023414],[105.761096,10.024098],[105.760962,10.024194],[105.76071,10.024377]]}},{"type":"Feature","properties":{"kind":"road"},"geometry":{"type":"LineString","coordinates":[[105.763226,10.02249],[105.763412,10.02235]]}},{"type":"Feature","properties":{"kind":"road"},"geometry":{"type":"LineString","coordinates":[[105.763466,10.022432],[105.763286,10.022572]]}},{"type":"Feature","properties":{"kind":"road"},"geometry":{"type":"LineString","coordinates":[[105.750164,10.032161],[105.750107,10.032212],[105.750065,10.032241],[105.748641,10.033433],[105.748518,10.033542],[105.748221,10.033805],[105.748031,10.033974],[105.747946,10.034048],[105.747561,10.034358],[105.746751,10.035075]]}},{"type":"Feature","properties":{"kind":"road"},"geometry":{"type":"LineString","coordinates":[[105.748189,10.02677],[105.748228,10.026808],[105.748942,10.027519],[105.74949,10.02806],[105.749625,10.028196],[105.74972,10.028292]]}},{"type":"Feature","properties":{"kind":"road"},"geometry":{"type":"LineString","coordinates":[[105.787384,10.036419],[105.787431,10.036728]]}},{"type":"Feature","properties":{"kind":"road"},"geometry":{"type":"LineString","coordinates":[[105.774504,10.032652],[105.775217,10.031453]]}},{"type":"Feature","properties":{"kind":"road"},"geometry":{"type":"LineString","coordinates":[[105.765289,10.043606],[105.765472,10.043869],[105.766625,10.044941],[105.767789,10.046105],[105.767921,10.046238]]}},{"type":"Feature","properties":{"kind":"road"},"geometry":{"type":"LineString","coordinates":[[105.763678,10.042022],[105.764852,10.043141]]}},{"type":"Feature","properties":{"kind":"road"},"geometry":{"type":"LineString","coordinates":[[105.749879,10.028451],[105.750172,10.028744],[105.750509,10.029077],[105.751797,10.030347],[105.751972,10.03052]]}},{"type":"Feature","properties":{"kind":"road"},"geometry":{"type":"LineString","coordinates":[[105.74972,10.028292],[105.749879,10.028451]]}},{"type":"Feature","properties":{"kind":"road"},"geometry":{"type":"LineString","coordinates":[[105.751882,10.030599],[105.751076,10.029783],[105.750718,10.029421],[105.750442,10.029141],[105.750084,10.028778],[105.749833,10.028529]]}},{"type":"Feature","properties":{"kind":"road"},"geometry":{"type":"LineString","coordinates":[[105.780063,10.045482],[105.779966,10.045536],[105.779894,10.045598],[105.779417,10.04607]]}},{"type":"Feature","properties":{"kind":"road"},"geometry":{"type":"LineString","coordinates":[[105.777634,10.047838],[105.777741,10.047737],[105.777828,10.047646],[105.777892,10.047578]]}},{"type":"Feature","properties":{"kind":"road"},"geometry":{"type":"LineString","coordinates":[[105.776116,10.049362],[105.776222,10.049258],[105.77647,10.049014],[105.776604,10.048886],[105.776753,10.048729],[105.776838,10.04864],[105.777086,10.048394],[105.777259,10.048222]]}},{"type":"Feature","properties":{"kind":"road"},"geometry":{"type":"LineString","coordinates":[[105.774153,10.051265],[105.774218,10.051204],[105.77432,10.05111],[105.774562,10.050869],[105.774904,10.050535],[105.775385,10.050066],[105.775483,10.049971],[105.775974,10.049492],[105.776116,10.049362]]}},{"type":"Feature","properties":{"kind":"road"},"geometry":{"type":"LineString","coordinates":[[105.772073,10.053395],[105.772127,10.05335],[105.772393,10.053081],[105.772584,10.052892],[105.772805,10.052658],[105.773057,10.052409]]}},{"type":"Feature","properties":{"kind":"road"},"geometry":{"type":"LineString","coordinates":[[105.770409,10.055056],[105.770679,10.054785],[105.770821,10.054643],[105.77133,10.054132],[105.771383,10.054082]]}},{"type":"Feature","properties":{"kind":"road"},"geometry":{"type":"LineString","coordinates":[[105.741926,10.020615],[105.743512,10.022197],[105.745082,10.023718],[105.746653,10.025276],[105.748189,10.02677]]}},{"type":"Feature","properties":{"kind":"road"},"geometry":{"type":"LineString","coordinates":[[105.749833,10.028529],[105.749676,10.028373]]}},{"type":"Feature","properties":{"kind":"road"},"geometry":{"type":"LineString","coordinates":[[105.774498,10.032832],[105.774467,10.032881],[105.773699,10.034146],[105.772998,10.035251],[105.772895,10.035413],[105.772826,10.035538]]}},{"type":"Feature","properties":{"kind":"road"},"geometry":{"type":"LineString","coordinates":[[105.7711,10.03794],[105.771178,10.037839],[105.771264,10.037719],[105.771638,10.037201]]}},{"type":"Feature","properties":{"kind":"road"},"geometry":{"type":"LineString","coordinates":[[105.76913,10.039503],[105.769619,10.039261],[105.769761,10.039181],[105.77017,10.038897],[105.7711,10.03794]]}},{"type":"Feature","properties":{"kind":"road"},"geometry":{"type":"LineString","coordinates":[[105.775879,10.030279],[105.775903,10.030323],[105.775308,10.031476],[105.774771,10.032401],[105.774662,10.032588],[105.774552,10.032756]]}},{"type":"Feature","properties":{"kind":"road"},"geometry":{"type":"LineString","coordinates":[[105.774765,10.052968],[105.7745,10.052809],[105.773866,10.052187],[105.773561,10.051864]]}},{"type":"Feature","properties":{"kind":"road"},"geometry":{"type":"LineString","coordinates":[[105.775299,10.025539],[105.775557,10.025772],[105.777014,10.027082]]}},{"type":"Feature","properties":{"kind":"road"},"geometry":{"type":"LineString","coordinates":[[105.74812,10.026837],[105.748189,10.02677],[105.748576,10.026386],[105.748968,10.026005],[105.74936,10.025607],[105.750262,10.024678],[105.75082,10.024134],[105.751094,10.023865],[105.751167,10.023809]]}},{"type":"Feature","properties":{"kind":"road"},"geometry":{"type":"LineString","coordinates":[[105.758956,10.047647],[105.760139,10.046858],[105.761102,10.046205],[105.764961,10.043651],[105.765073,10.043577]]}},{"type":"Feature","properties":{"kind":"road"},"geometry":{"type":"LineString","coordinates":[[105.767921,10.046238],[105.767957,10.046272],[105.769445,10.047675],[105.769941,10.048137],[105.770152,10.048347],[105.77069,10.048881],[105.771154,10.049341],[105.7721,10.050272],[105.772616,10.050775],[105.772973,10.05112],[105.773649,10.051772]]}},{"type":"Feature","properties":{"kind":"road"},"geometry":{"type":"LineString","coordinates":[[105.749676,10.028373],[105.7494,10.028099],[105.74888,10.027579],[105.748158,10.026877],[105.74812,10.026837],[105.747699,10.026429],[105.746729,10.025485],[105.746589,10.025337],[105.745154,10.023934],[105.745147,10.023927],[105.745005,10.023797],[105.7437,10.022508],[105.743451,10.022257],[105.742159,10.020965],[105.741863,10.020668]]}},{"type":"Feature","properties":{"kind":"road"},"geometry":{"type":"LineString","coordinates":[[105.774152,10.024735],[105.774078,10.024661],[105.774059,10.024642]]}},{"type":"Feature","properties":{"kind":"road"},"geometry":{"type":"LineString","coordinates":[[105.755905,10.013003],[105.755851,10.012964],[105.755808,10.012912],[105.755782,10.012851],[105.755773,10.012785],[105.755782,10.012718],[105.75581,10.012656],[105.755854,10.012604],[105.75591,10.012566]]}},{"type":"Feature","properties":{"kind":"road"},"geometry":{"type":"LineString","coordinates":[[105.755905,10.013003],[105.755641,10.012913],[105.755057,10.012735],[105.754941,10.012698]]}},{"type":"Feature","properties":{"kind":"road"},"geometry":{"type":"LineString","coordinates":[[105.755976,10.012544],[105.756128,10.012449],[105.756557,10.012296],[105.757265,10.012044],[105.757835,10.011841],[105.758528,10.011631],[105.758732,10.011579],[105.758941,10.011563],[105.759072,10.011584],[105.759256,10.011628],[105.75944,10.011698],[105.759556,10.011749],[105.759972,10.01213],[105.760757,10.012846],[105.761394,10.013394],[105.76173,10.013675],[105.761903,10.013837],[105.762107,10.014026],[105.762411,10.014293],[105.76242,10.0143],[105.762469,10.014339],[105.762536,10.014397],[105.763051,10.014846],[105.763704,10.015414],[105.764229,10.015873],[105.764675,10.016282],[105.765133,10.016702],[105.765222,10.01678],[105.767061,10.018376],[105.767947,10.019145],[105.768254,10.01941],[105.768459,10.019575]]}},{"type":"Feature","properties":{"kind":"road"},"geometry":{"type":"LineString","coordinates":[[105.755037,10.012597],[105.755182,10.012632],[105.755335,10.012659],[105.75553,10.012643],[105.75591,10.012566]]}},{"type":"Feature","properties":{"kind":"road"},"geometry":{"type":"LineString","coordinates":[[105.77086,10.021677],[105.770953,10.02176],[105.771286,10.022057],[105.771846,10.022568],[105.772205,10.02286],[105.773059,10.023591],[105.773337,10.023832],[105.77362,10.024082],[105.773949,10.024382],[105.774141,10.024554],[105.774238,10.024638],[105.774936,10.025231],[105.775299,10.025539]]}},{"type":"Feature","properties":{"kind":"road"},"geometry":{"type":"LineString","coordinates":[[105.768331,10.01964],[105.766966,10.01845],[105.766495,10.01804],[105.766117,10.01771],[105.765754,10.017393],[105.765554,10.01722],[105.765428,10.017109],[105.765204,10.016914],[105.765143,10.016861],[105.765059,10.016787],[105.764816,10.016575],[105.76291,10.014908],[105.762813,10.014806],[105.762496,10.014553],[105.762436,10.014501],[105.762382,10.014453],[105.762319,10.014401],[105.762057,10.014184],[105.759438,10.01187],[105.759238,10.011756],[105.759025,10.011718],[105.758811,10.011711],[105.758576,10.011762],[105.758184,10.011878],[105.75788,10.011962],[105.757827,10.01198],[105.756576,10.012389],[105.756459,10.012475],[105.756381,10.012589],[105.75627,10.012751]]}},{"type":"Feature","properties":{"kind":"road"},"geometry":{"type":"LineString","coordinates":[[105.779881,10.045183],[105.779625,10.044937],[105.779153,10.044483],[105.77878,10.044125],[105.778731,10.044072],[105.77867,10.043991],[105.778612,10.043896],[105.778582,10.043834],[105.778556,10.043771],[105.778123,10.042584],[105.778075,10.042455],[105.777778,10.041641],[105.777694,10.04141],[105.777637,10.041256]]}},{"type":"Feature","properties":{"kind":"road"},"geometry":{"type":"LineString","coordinates":[[105.771753,10.037266],[105.771423,10.037788],[105.77122,10.038041]]}},{"type":"Feature","properties":{"kind":"road"},"geometry":{"type":"LineString","coordinates":[[105.771638,10.037201],[105.772715,10.035474]]}},{"type":"Feature","properties":{"kind":"road"},"geometry":{"type":"LineString","coordinates":[[105.772826,10.035538],[105.772125,10.036664],[105.771855,10.037097],[105.771753,10.037266]]}},{"type":"Feature","properties":{"kind":"road"},"geometry":{"type":"LineString","coordinates":[[105.772715,10.035474],[105.772967,10.035077],[105.773315,10.034516],[105.773702,10.033894],[105.773937,10.033516],[105.774149,10.033199],[105.774371,10.032852],[105.774442,10.032743]]}},{"type":"Feature","properties":{"kind":"road"},"geometry":{"type":"LineString","coordinates":[[105.765173,10.043703],[105.76511,10.043745],[105.764786,10.043961],[105.764375,10.044236],[105.763175,10.045039],[105.762871,10.045246],[105.760275,10.046968],[105.759587,10.047436],[105.759214,10.047696]]}},{"type":"Feature","properties":{"kind":"road"},"geometry":{"type":"LineString","coordinates":[[105.777649,10.055786],[105.776812,10.054961]]}},{"type":"Feature","properties":{"kind":"road"},"geometry":{"type":"LineString","coordinates":[[105.775552,10.053765],[105.774765,10.052968]]}},{"type":"Feature","properties":{"kind":"road"},"geometry":{"type":"LineString","coordinates":[[105.773649,10.051772],[105.773963,10.052135],[105.774616,10.052741],[105.774765,10.052968]]}},{"type":"Feature","properties":{"kind":"road"},"geometry":{"type":"LineString","coordinates":[[105.773561,10.051864],[105.772517,10.050868],[105.77241,10.050766],[105.772222,10.050586],[105.771861,10.050269],[105.771518,10.049918],[105.771183,10.049576],[105.770812,10.049232],[105.770499,10.04893],[105.770432,10.048864],[105.769759,10.048228],[105.769556,10.048035],[105.769521,10.048001],[105.769308,10.047767],[105.768772,10.047241],[105.767859,10.046364],[105.766658,10.04514],[105.765671,10.044237],[105.765379,10.04396],[105.765173,10.043703]]}},{"type":"Feature","properties":{"kind":"road"},"geometry":{"type":"LineString","coordinates":[[105.751994,10.030705],[105.751882,10.030599]]}},{"type":"Feature","properties":{"kind":"road"},"geometry":{"type":"LineString","coordinates":[[105.751972,10.03052],[105.752087,10.030628]]}},{"type":"Feature","properties":{"kind":"road"},"geometry":{"type":"LineString","coordinates":[[105.764734,10.043246],[105.763537,10.042048]]}},{"type":"Feature","properties":{"kind":"road"},"geometry":{"type":"LineString","coordinates":[[105.765029,10.043327],[105.765182,10.043482]]}},{"type":"Feature","properties":{"kind":"road"},"geometry":{"type":"LineString","coordinates":[[105.777637,10.041256],[105.777305,10.040322]]}},{"type":"Feature","properties":{"kind":"road"},"geometry":{"type":"LineString","coordinates":[[105.753067,10.011877],[105.753414,10.012092],[105.753759,10.012233],[105.754069,10.012328],[105.754676,10.012487],[105.754933,10.012565],[105.755037,10.012597]]}},{"type":"Feature","properties":{"kind":"road"},"geometry":{"type":"LineString","coordinates":[[105.768435,10.019735],[105.768331,10.01964]]}},{"type":"Feature","properties":{"kind":"road"},"geometry":{"type":"LineString","coordinates":[[105.768459,10.019575],[105.768564,10.019667]]}},{"type":"Feature","properties":{"kind":"road"},"geometry":{"type":"LineString","coordinates":[[105.760443,10.024437],[105.760662,10.024278]]}},{"type":"Feature","properties":{"kind":"road"},"geometry":{"type":"LineString","coordinates":[[105.751167,10.023809],[105.751927,10.023259],[105.752647,10.022745]]}},{"type":"Feature","properties":{"kind":"road"},"geometry":{"type":"LineString","coordinates":[[105.770799,10.018534],[105.770919,10.01847]]}},{"type":"Feature","properties":{"kind":"road"},"geometry":{"type":"LineString","coordinates":[[105.770799,10.018534],[105.770683,10.018645]]}},{"type":"Feature","properties":{"kind":"road"},"geometry":{"type":"LineString","coordinates":[[105.768459,10.019575],[105.770553,10.018573]]}},{"type":"Feature","properties":{"kind":"road"},"geometry":{"type":"LineString","coordinates":[[105.768564,10.019667],[105.768435,10.019735]]}},{"type":"Feature","properties":{"kind":"road"},"geometry":{"type":"LineString","coordinates":[[105.768331,10.01964],[105.768459,10.019575]]}},{"type":"Feature","properties":{"kind":"road"},"geometry":{"type":"LineString","coordinates":[[105.765607,10.010752],[105.765671,10.010682]]}},{"type":"Feature","properties":{"kind":"road"},"geometry":{"type":"LineString","coordinates":[[105.754941,10.012698],[105.754144,10.012442],[105.753745,10.012307],[105.753505,10.012203],[105.753191,10.012046],[105.753031,10.011944]]}},{"type":"Feature","properties":{"kind":"road"},"geometry":{"type":"LineString","coordinates":[[105.760424,10.01614],[105.760455,10.016051],[105.762015,10.014762],[105.762249,10.014548],[105.762265,10.014533],[105.76232,10.014522]]}},{"type":"Feature","properties":{"kind":"road"},"geometry":{"type":"LineString","coordinates":[[105.774552,10.032756],[105.774652,10.03296],[105.774737,10.03319],[105.775038,10.034002],[105.775302,10.034716],[105.775495,10.035237],[105.776059,10.03676],[105.776384,10.037637],[105.776438,10.037782],[105.776677,10.038429],[105.776875,10.038963],[105.777358,10.040268]]}},{"type":"Feature","properties":{"kind":"road"},"geometry":{"type":"LineString","coordinates":[[105.774442,10.032743],[105.774504,10.032652]]}},{"type":"Feature","properties":{"kind":"road"},"geometry":{"type":"LineString","coordinates":[[105.76471,10.021439],[105.7646,10.021311],[105.763222,10.019691],[105.762914,10.019342],[105.762743,10.019136],[105.762503,10.018858],[105.762024,10.018309],[105.761305,10.017473],[105.760889,10.017001],[105.760863,10.016971],[105.760294,10.016308],[105.760262,10.01627],[105.760223,10.016225],[105.760019,10.015987],[105.759844,10.015784],[105.759086,10.014897],[105.759056,10.014864],[105.758689,10.014444],[105.758415,10.014172],[105.758391,10.014143],[105.758109,10.013929],[105.757872,10.013769],[105.757446,10.013538],[105.757275,10.013459],[105.757205,10.013433],[105.756826,10.013303],[105.756036,10.013032]]}},{"type":"Feature","properties":{"kind":"road"},"geometry":{"type":"LineString","coordinates":[[105.763412,10.02235],[105.764035,10.021896],[105.764485,10.02158],[105.764568,10.021526],[105.764587,10.021514],[105.76471,10.021439]]}},{"type":"Feature","properties":{"kind":"road"},"geometry":{"type":"LineString","coordinates":[[105.756272,10.012802],[105.756391,10.012899],[105.756467,10.012991],[105.756569,10.013041],[105.756769,10.013103],[105.757199,10.013248],[105.75768,10.013463],[105.757966,10.013644],[105.758242,10.013869],[105.758473,10.014069],[105.759126,10.014764],[105.759193,10.014834],[105.759342,10.015017],[105.76011,10.015909],[105.760146,10.015951],[105.760355,10.016194],[105.760385,10.016229],[105.761032,10.016982],[105.761176,10.017146],[105.761515,10.01752],[105.762845,10.019056],[105.763025,10.019263],[105.763893,10.020264],[105.764723,10.02122],[105.76475,10.02125],[105.764844,10.021359]]}},{"type":"Feature","properties":{"kind":"road"},"geometry":{"type":"LineString","coordinates":[[105.76471,10.021439],[105.76475,10.021415],[105.764844,10.021359]]}},{"type":"Feature","properties":{"kind":"road"},"geometry":{"type":"LineString","coordinates":[[105.762382,10.014453],[105.762469,10.014339],[105.762498,10.014304],[105.762507,10.014293]]}},{"type":"Feature","properties":{"kind":"road"},"geometry":{"type":"LineString","coordinates":[[105.765736,10.010734],[105.765671,10.010805]]}},{"type":"Feature","properties":{"kind":"road"},"geometry":{"type":"LineString","coordinates":[[105.765671,10.010805],[105.765464,10.011031],[105.765181,10.011347],[105.764784,10.011792],[105.763627,10.013102],[105.762579,10.014278],[105.762568,10.01429],[105.762507,10.014293]]}},{"type":"Feature","properties":{"kind":"road"},"geometry":{"type":"LineString","coordinates":[[105.777014,10.027082],[105.777172,10.027203],[105.777766,10.027639],[105.777784,10.027654],[105.778018,10.027855],[105.779805,10.029392]]}},{"type":"Feature","properties":{"kind":"road"},"geometry":{"type":"LineString","coordinates":[[105.7797,10.029522],[105.779317,10.029172],[105.778765,10.028676],[105.778168,10.028104],[105.777947,10.027904],[105.777767,10.027759],[105.776951,10.027184]]}},{"type":"Feature","properties":{"kind":"road"},"geometry":{"type":"LineString","coordinates":[[105.775217,10.031453],[105.775622,10.030675],[105.775836,10.030291]]}},{"type":"Feature","properties":{"kind":"road"},"geometry":{"type":"LineString","coordinates":[[105.775836,10.030291],[105.775879,10.030279]]}},{"type":"Feature","properties":{"kind":"road"},"geometry":{"type":"LineString","coordinates":[[105.776941,10.027213],[105.776951,10.027184]]}},{"type":"Feature","properties":{"kind":"road"},"geometry":{"type":"LineString","coordinates":[[105.776941,10.027213],[105.776916,10.027341],[105.776767,10.027794],[105.776744,10.027865],[105.776639,10.028184],[105.776404,10.0289],[105.776354,10.029051],[105.776251,10.029365],[105.776125,10.029747],[105.776064,10.02978]]}},{"type":"Feature","properties":{"kind":"road"},"geometry":{"type":"LineString","coordinates":[[105.775879,10.030279],[105.775898,10.030212],[105.77594,10.030137],[105.775969,10.030054],[105.776008,10.029937],[105.77603,10.029885],[105.776055,10.029813],[105.776064,10.02978]]}},{"type":"Feature","properties":{"kind":"road"},"geometry":{"type":"LineString","coordinates":[[105.751216,10.02387],[105.751149,10.023924],[105.750302,10.024718],[105.74991,10.025115],[105.749006,10.026043],[105.748618,10.026428],[105.748282,10.02675],[105.748258,10.026776],[105.748228,10.026808]]}},{"type":"Feature","properties":{"kind":"road"},"geometry":{"type":"LineString","coordinates":[[105.75268,10.022821],[105.751971,10.023325],[105.751216,10.02387]]}},{"type":"Feature","properties":{"kind":"road"},"geometry":{"type":"LineString","coordinates":[[105.760226,10.016319],[105.760181,10.016392],[105.758623,10.017718],[105.758366,10.017935],[105.757539,10.018609],[105.757448,10.018678],[105.757298,10.018799],[105.757154,10.018904],[105.7569,10.019074],[105.75667,10.019242],[105.756232,10.019509],[105.75607,10.019647],[105.755963,10.01975],[105.754384,10.021267],[105.754007,10.021606],[105.753687,10.021901],[105.753373,10.022221],[105.752895,10.022647],[105.75268,10.022821]]}},{"type":"Feature","properties":{"kind":"road"},"geometry":{"type":"LineString","coordinates":[[105.758297,10.017902],[105.758545,10.017697],[105.758605,10.017646],[105.758889,10.017406],[105.760137,10.016335],[105.760226,10.016319]]}},{"type":"Feature","properties":{"kind":"road"},"geometry":{"type":"LineString","coordinates":[[105.760424,10.01614],[105.760355,10.016194],[105.760262,10.01627],[105.760226,10.016319]]}},{"type":"Feature","properties":{"kind":"road"},"geometry":{"type":"LineString","coordinates":[[105.762382,10.014453],[105.762331,10.01451],[105.76232,10.014522]]}},{"type":"Feature","properties":{"kind":"road"},"geometry":{"type":"LineString","coordinates":[[105.76232,10.014522],[105.762313,10.014572],[105.762034,10.014825],[105.760517,10.016121],[105.760424,10.01614]]}},{"type":"Feature","properties":{"kind":"road"},"geometry":{"type":"LineString","coordinates":[[105.764844,10.021359],[105.764932,10.021464]]}},{"type":"Feature","properties":{"kind":"road"},"geometry":{"type":"LineString","coordinates":[[105.764791,10.021537],[105.764663,10.02161],[105.764641,10.021622],[105.764543,10.021686],[105.763466,10.022432]]}},{"type":"Feature","properties":{"kind":"road"},"geometry":{"type":"LineString","coordinates":[[105.764932,10.021464],[105.764791,10.021537]]}},{"type":"Feature","properties":{"kind":"road"},"geometry":{"type":"LineString","coordinates":[[105.764791,10.021537],[105.76471,10.021439]]}},{"type":"Feature","properties":{"kind":"road"},"geometry":{"type":"LineString","coordinates":[[105.785815,10.034817],[105.786491,10.03542],[105.787022,10.035893],[105.787254,10.036101]]}},{"type":"Feature","properties":{"kind":"road"},"geometry":{"type":"LineString","coordinates":[[105.785041,10.034114],[105.78535,10.034395],[105.785371,10.034414],[105.785647,10.034664],[105.785815,10.034817]]}},{"type":"Feature","properties":{"kind":"road"},"geometry":{"type":"LineString","coordinates":[[105.787167,10.036235],[105.786909,10.035997],[105.786461,10.035584],[105.78571,10.034893]]}},{"type":"Feature","properties":{"kind":"road"},"geometry":{"type":"LineString","coordinates":[[105.78571,10.034893],[105.784932,10.03422]]}},{"type":"Feature","properties":{"kind":"road"},"geometry":{"type":"LineString","coordinates":[[105.754272,10.02865],[105.754844,10.028254],[105.755533,10.027817],[105.756301,10.027296]]}},{"type":"Feature","properties":{"kind":"road"},"geometry":{"type":"LineString","coordinates":[[105.756383,10.027372],[105.75597,10.027661],[105.755518,10.027953],[105.75512,10.028212],[105.754806,10.028423],[105.754338,10.028753]]}},{"type":"Feature","properties":{"kind":"road"},"geometry":{"type":"LineString","coordinates":[[105.779417,10.04607],[105.778631,10.046886],[105.778562,10.046899]]}},{"type":"Feature","properties":{"kind":"road"},"geometry":{"type":"LineString","coordinates":[[105.779357,10.04603],[105.779816,10.045529],[105.779867,10.045459],[105.779904,10.045389]]}},{"type":"Feature","properties":{"kind":"road"},"geometry":{"type":"LineString","coordinates":[[105.778562,10.046899],[105.778575,10.046847],[105.779315,10.046074],[105.779357,10.04603]]}},{"type":"Feature","properties":{"kind":"road"},"geometry":{"type":"LineString","coordinates":[[105.778351,10.047107],[105.778317,10.047191],[105.778129,10.047386],[105.778098,10.047419],[105.777984,10.047533],[105.777892,10.047578]]}},{"type":"Feature","properties":{"kind":"road"},"geometry":{"type":"LineString","coordinates":[[105.777892,10.047578],[105.777925,10.047481],[105.77807,10.047331],[105.778266,10.047133],[105.778351,10.047107]]}},{"type":"Feature","properties":{"kind":"road"},"geometry":{"type":"LineString","coordinates":[[105.778351,10.047107],[105.778562,10.046899]]}},{"type":"Feature","properties":{"kind":"road"},"geometry":{"type":"LineString","coordinates":[[105.777259,10.048222],[105.777281,10.048131],[105.777515,10.047891],[105.777634,10.047838]]}},{"type":"Feature","properties":{"kind":"road"},"geometry":{"type":"LineString","coordinates":[[105.773738,10.051686],[105.773748,10.051627],[105.773753,10.051595],[105.773854,10.051482],[105.774042,10.0513],[105.774153,10.051265]]}},{"type":"Feature","properties":{"kind":"road"},"geometry":{"type":"LineString","coordinates":[[105.77167,10.053807],[105.771713,10.053769]]}},{"type":"Feature","properties":{"kind":"road"},"geometry":{"type":"LineString","coordinates":[[105.771383,10.054082],[105.771398,10.054026],[105.771619,10.053816],[105.77167,10.053807]]}},{"type":"Feature","properties":{"kind":"road"},"geometry":{"type":"LineString","coordinates":[[105.771908,10.053564],[105.771908,10.053538],[105.772043,10.053401],[105.772073,10.053395]]}},{"type":"Feature","properties":{"kind":"road"},"geometry":{"type":"LineString","coordinates":[[105.771713,10.053769],[105.771892,10.053581],[105.771908,10.053564]]}},{"type":"Feature","properties":{"kind":"road"},"geometry":{"type":"LineString","coordinates":[[105.773385,10.052047],[105.773561,10.051864],[105.773649,10.051772],[105.773738,10.051686]]}},{"type":"Feature","properties":{"kind":"road"},"geometry":{"type":"LineString","coordinates":[[105.773057,10.052409],[105.77307,10.052347],[105.77333,10.052071],[105.773385,10.052047]]}},{"type":"Feature","properties":{"kind":"road"},"geometry":{"type":"LineString","coordinates":[[105.750164,10.032161],[105.750227,10.032036],[105.751711,10.030747],[105.751882,10.030599]]}},{"type":"Feature","properties":{"kind":"road"},"geometry":{"type":"LineString","coordinates":[[105.751882,10.030599],[105.751972,10.03052]]}},{"type":"Feature","properties":{"kind":"road"},"geometry":{"type":"LineString","coordinates":[[105.781696,10.031293],[105.781285,10.030937],[105.781094,10.030774],[105.781046,10.030731],[105.780738,10.030456],[105.77999,10.029787],[105.779946,10.029748],[105.779799,10.029623],[105.7797,10.029522]]}},{"type":"Feature","properties":{"kind":"road"},"geometry":{"type":"LineString","coordinates":[[105.779805,10.029392],[105.779932,10.02949],[105.78123,10.030659],[105.781449,10.030861],[105.781828,10.03121],[105.781898,10.031275]]}},{"type":"Feature","properties":{"kind":"road"},"geometry":{"type":"LineString","coordinates":[[105.765182,10.043482],[105.765289,10.043606]]}},{"type":"Feature","properties":{"kind":"road"},"geometry":{"type":"LineString","coordinates":[[105.787035,10.038427],[105.787046,10.038416],[105.787548,10.037865],[105.787649,10.037753],[105.78768,10.037677]]}},{"type":"Feature","properties":{"kind":"road"},"geometry":{"type":"LineString","coordinates":[[105.768564,10.019667],[105.769374,10.020384],[105.770735,10.021569],[105.77086,10.021677]]}},{"type":"Feature","properties":{"kind":"road"},"geometry":{"type":"LineString","coordinates":[[105.770779,10.021786],[105.770289,10.021365],[105.769714,10.020872],[105.768685,10.019958],[105.768619,10.019899],[105.768435,10.019735]]}},{"type":"Feature","properties":{"kind":"road"},"geometry":{"type":"LineString","coordinates":[[105.746751,10.035075],[105.746486,10.035304],[105.746345,10.035425]]}},{"type":"Feature","properties":{"kind":"road"},"geometry":{"type":"LineString","coordinates":[[105.755976,10.012544],[105.756044,10.01254],[105.756111,10.012555],[105.756172,10.012588],[105.756221,10.012635],[105.756255,10.012694],[105.75627,10.012751]]}},{"type":"Feature","properties":{"kind":"road"},"geometry":{"type":"LineString","coordinates":[[105.75591,10.012566],[105.755976,10.012544]]}},{"type":"Feature","properties":{"kind":"road"},"geometry":{"type":"LineString","coordinates":[[105.780247,10.045116],[105.780286,10.045172],[105.780305,10.045236],[105.780304,10.045303],[105.780282,10.045367]]}},{"type":"Feature","properties":{"kind":"road"},"geometry":{"type":"LineString","coordinates":[[105.777634,10.047838],[105.777583,10.047943],[105.777464,10.048076],[105.77736,10.04818],[105.777259,10.048222]]}},{"type":"Feature","properties":{"kind":"road"},"geometry":{"type":"LineString","coordinates":[[105.774153,10.051265],[105.774134,10.051356],[105.774009,10.05149],[105.773842,10.051657],[105.773738,10.051686]]}},{"type":"Feature","properties":{"kind":"road"},"geometry":{"type":"LineString","coordinates":[[105.773385,10.052047],[105.773368,10.052104],[105.773116,10.052385],[105.773057,10.052409]]}},{"type":"Feature","properties":{"kind":"road"},"geometry":{"type":"LineString","coordinates":[[105.772073,10.053395],[105.772066,10.053424],[105.771936,10.05356],[105.771908,10.053564]]}},{"type":"Feature","properties":{"kind":"road"},"geometry":{"type":"LineString","coordinates":[[105.77167,10.053807],[105.771658,10.053855],[105.771442,10.054064],[105.771383,10.054082]]}},{"type":"Feature","properties":{"kind":"road"},"geometry":{"type":"LineString","coordinates":[[105.756272,10.012802],[105.75625,10.012889],[105.756213,10.012945],[105.756163,10.01299],[105.756102,10.013019],[105.756036,10.013032]]}},{"type":"Feature","properties":{"kind":"road"},"geometry":{"type":"LineString","coordinates":[[105.765173,10.043703],[105.765073,10.043577]]}},{"type":"Feature","properties":{"kind":"road"},"geometry":{"type":"LineString","coordinates":[[105.765073,10.043577],[105.765182,10.043482]]}},{"type":"Feature","properties":{"kind":"road"},"geometry":{"type":"LineString","coordinates":[[105.779993,10.045068],[105.78006,10.045049],[105.780128,10.045052],[105.780193,10.045075],[105.780247,10.045116]]}},{"type":"Feature","properties":{"kind":"road"},"geometry":{"type":"LineString","coordinates":[[105.780282,10.045367],[105.780245,10.045424],[105.780189,10.045458],[105.780128,10.04548]]}},{"type":"Feature","properties":{"kind":"road"},"geometry":{"type":"LineString","coordinates":[[105.782152,10.031705],[105.782081,10.031645],[105.782015,10.031587],[105.781983,10.03156],[105.781802,10.031389],[105.781696,10.031293]]}},{"type":"Feature","properties":{"kind":"road"},"geometry":{"type":"LineString","coordinates":[[105.774498,10.032832],[105.774442,10.032743]]}},{"type":"Feature","properties":{"kind":"road"},"geometry":{"type":"LineString","coordinates":[[105.751994,10.030705],[105.751354,10.031222],[105.750284,10.032098],[105.750164,10.032161]]}},{"type":"Feature","properties":{"kind":"road"},"geometry":{"type":"LineString","coordinates":[[105.781898,10.031275],[105.782116,10.031473]]}},{"type":"Feature","properties":{"kind":"road"},"geometry":{"type":"LineString","coordinates":[[105.779881,10.045183],[105.779908,10.045135],[105.779947,10.045096],[105.779993,10.045068]]}},{"type":"Feature","properties":{"kind":"road"},"geometry":{"type":"LineString","coordinates":[[105.765289,10.043606],[105.765173,10.043703]]}},{"type":"Feature","properties":{"kind":"road"},"geometry":{"type":"LineString","coordinates":[[105.741739,10.020432],[105.741777,10.020412],[105.741821,10.02041],[105.741865,10.020421],[105.741903,10.020446],[105.741931,10.020482],[105.741945,10.020524],[105.741944,10.020569],[105.741926,10.020615]]}},{"type":"Feature","properties":{"kind":"road"},"geometry":{"type":"LineString","coordinates":[[105.764852,10.043141],[105.765029,10.043327]]}},{"type":"Feature","properties":{"kind":"road"},"geometry":{"type":"LineString","coordinates":[[105.783686,10.033134],[105.783493,10.032965]]}},{"type":"Feature","properties":{"kind":"road"},"geometry":{"type":"LineString","coordinates":[[105.783795,10.033022],[105.785041,10.034114]]}},{"type":"Feature","properties":{"kind":"road"},"geometry":{"type":"LineString","coordinates":[[105.783493,10.032965],[105.783167,10.032667],[105.782454,10.031996],[105.782399,10.031945],[105.782341,10.031891],[105.782152,10.031705]]}},{"type":"Feature","properties":{"kind":"road"},"geometry":{"type":"LineString","coordinates":[[105.767537,10.024744],[105.765429,10.022268],[105.764919,10.021682],[105.764885,10.021643],[105.764791,10.021537]]}},{"type":"Feature","properties":{"kind":"road"},"geometry":{"type":"LineString","coordinates":[[105.783698,10.04173],[105.784591,10.040834],[105.784931,10.04049],[105.785042,10.040378],[105.785215,10.040205],[105.785536,10.039882],[105.785851,10.039566],[105.785896,10.039523],[105.786318,10.03912],[105.787035,10.038427]]}},{"type":"Feature","properties":{"kind":"road"},"geometry":{"type":"LineString","coordinates":[[105.770553,10.018573],[105.770645,10.018531],[105.770799,10.018534]]}},{"type":"Feature","properties":{"kind":"road"},"geometry":{"type":"LineString","coordinates":[[105.770683,10.018645],[105.768802,10.019544],[105.768564,10.019667]]}},{"type":"Feature","properties":{"kind":"road"},"geometry":{"type":"LineString","coordinates":[[105.75627,10.012751],[105.756275,10.012775],[105.756274,10.012783],[105.756272,10.012802]]}},{"type":"Feature","properties":{"kind":"road"},"geometry":{"type":"LineString","coordinates":[[105.756036,10.013032],[105.755969,10.013026],[105.755905,10.013003]]}},{"type":"Feature","properties":{"kind":"road"},"geometry":{"type":"LineString","coordinates":[[105.774552,10.032756],[105.774498,10.032832]]}},{"type":"Feature","properties":{"kind":"road"},"geometry":{"type":"LineString","coordinates":[[105.774504,10.032652],[105.774552,10.032756]]}},{"type":"Feature","properties":{"kind":"road"},"geometry":{"type":"LineString","coordinates":[[105.758648,10.025671],[105.759292,10.025234],[105.760443,10.024437]]}},{"type":"Feature","properties":{"kind":"road"},"geometry":{"type":"LineString","coordinates":[[105.760506,10.024525],[105.758832,10.025673],[105.758718,10.025746]]}},{"type":"Feature","properties":{"kind":"road"},"geometry":{"type":"LineString","coordinates":[[105.741863,10.020668],[105.741818,10.020677],[105.741774,10.020675],[105.741736,10.020654],[105.741704,10.020625],[105.741681,10.020588],[105.741676,10.020545],[105.741685,10.020497]]}},{"type":"Feature","properties":{"kind":"road"},"geometry":{"type":"LineString","coordinates":[[105.741685,10.020497],[105.741701,10.020465],[105.741739,10.020432]]}},{"type":"Feature","properties":{"kind":"road"},"geometry":{"type":"LineString","coordinates":[[105.741926,10.020615],[105.741898,10.020645],[105.741863,10.020668]]}},{"type":"Feature","properties":{"kind":"road"},"geometry":{"type":"LineString","coordinates":[[105.752087,10.030628],[105.751994,10.030705]]}},{"type":"Feature","properties":{"kind":"road"},"geometry":{"type":"LineString","coordinates":[[105.787384,10.036419],[105.787328,10.036423],[105.787274,10.036411],[105.787227,10.036382],[105.787191,10.03634],[105.78717,10.036289],[105.787167,10.036235]]}},{"type":"Feature","properties":{"kind":"road"},"geometry":{"type":"LineString","coordinates":[[105.787254,10.036101],[105.787306,10.036082],[105.787367,10.03608],[105.787425,10.036099],[105.787472,10.036136],[105.787504,10.036187],[105.787517,10.036245],[105.787508,10.036304],[105.78748,10.036357]]}},{"type":"Feature","properties":{"kind":"road"},"geometry":{"type":"LineString","coordinates":[[105.787167,10.036235],[105.787181,10.036182],[105.787211,10.036136],[105.787254,10.036101]]}},{"type":"Feature","properties":{"kind":"road"},"geometry":{"type":"LineString","coordinates":[[105.78748,10.036357],[105.787435,10.036397],[105.787384,10.036419]]}},{"type":"Feature","properties":{"kind":"road"},"geometry":{"type":"LineString","coordinates":[[105.782945,10.042431],[105.783019,10.042366]]}},{"type":"Feature","properties":{"kind":"road"},"geometry":{"type":"LineString","coordinates":[[105.78287,10.042515],[105.782945,10.042431]]}},{"type":"Feature","properties":{"kind":"road"},"geometry":{"type":"LineString","coordinates":[[105.780063,10.045482],[105.78,10.045466],[105.779969,10.04545],[105.779935,10.045428],[105.779904,10.045389]]}},{"type":"Feature","properties":{"kind":"road"},"geometry":{"type":"LineString","coordinates":[[105.780128,10.04548],[105.780063,10.045482]]}}]}